STARLINK-32432          
1 61257U 24175Q   26068.62795019 -.00001484  00000+0 -37980-4 0  9990
2 61257  53.1597 194.3614 0000972  61.6966 298.4133 15.30202075 81445
NUSHSAT1                
1 63211U 25052B   26068.64700493  .00023034  00000+0  74857-3 0  9997
2 63211  97.4095 325.7239 0005501  84.7512 275.4357 15.31903202 54882
